[
    { "label": "Andorre", "code": "AD", "image": "AD", "dial_code": "+376", "phone_length": 9, "currency": "EUR", "locale": "fr_AD" },
    { "label": "États-Unis", "code": "US", "image": "US", "dial_code": "+1", "phone_length": 10, "currency": "USD", "locale": "en_US" },
    { "label": "Émirats arabes unis", "code": "AE", "image": "AE", "dial_code": "+971", "phone_length": 9, "currency": "AED", "locale": "ar_AE" },
    { "label": "Afghanistan", "code": "AF", "image": "AF", "dial_code": "+93", "phone_length": 9, "currency": "AFN", "locale": "fa_AF" },
    { "label": "Antigua-et-Barbuda", "code": "AG", "image": "AG", "dial_code": "+1", "phone_length": 10, "currency": "XCD", "locale": "en_AG" },
    { "label": "Anguilla", "code": "AI", "image": "AI", "dial_code": "+1", "phone_length": 10, "currency": "XCD", "locale": "en_AI" },
    { "label": "Albanie", "code": "AL", "image": "AL", "dial_code": "+355", "phone_length": 9, "currency": "ALL", "locale": "sq_AL" },
    { "label": "Arménie", "code": "AM", "image": "AM", "dial_code": "+374", "phone_length": 8, "currency": "AMD", "locale": "hy_AM" },
    { "label": "Angola", "code": "AO", "image": "AO", "dial_code": "+244", "phone_length": 9, "currency": "AOA", "locale": "pt_AO" },
    { "label": "Antarctique", "code": "AQ", "image": "AQ", "dial_code": "+672", "phone_length": 9, "currency": "AUD", "locale": "en_AQ" },
    { "label": "Argentine", "code": "AR", "image": "AR", "dial_code": "+54", "phone_length": 10, "currency": "ARS", "locale": "es_AR" },
    { "label": "Samoa américaines", "code": "AS", "image": "AS", "dial_code": "+1", "phone_length": 10, "currency": "USD", "locale": "en_AS" },
    { "label": "Autriche", "code": "AT", "image": "AT", "dial_code": "+43", "phone_length": 10, "currency": "EUR", "locale": "de_AT" },
    { "label": "Australie", "code": "AU", "image": "AU", "dial_code": "+61", "phone_length": 9, "currency": "AUD", "locale": "en_AU" },
    { "label": "Aruba", "code": "AW", "image": "AW", "dial_code": "+297", "phone_length": 7, "currency": "AWG", "locale": "nl_AW" },
    { "label": "Îles Åland", "code": "AX", "image": "AX", "dial_code": "+358", "phone_length": 9, "currency": "EUR", "locale": "sv_AX" },
    { "label": "Azerbaïdjan", "code": "AZ", "image": "AZ", "dial_code": "+994", "phone_length": 9, "currency": "AZN", "locale": "az_AZ" },
    { "label": "Bosnie-Herzégovine", "code": "BA", "image": "BA", "dial_code": "+387", "phone_length": 8, "currency": "BAM", "locale": "bs_BA" },
    { "label": "Barbade", "code": "BB", "image": "BB", "dial_code": "+1", "phone_length": 10, "currency": "BBD", "locale": "en_BB" },
    { "label": "Bangladesh", "code": "BD", "image": "BD", "dial_code": "+880", "phone_length": 10, "currency": "BDT", "locale": "bn_BD" },
    { "label": "Belgique", "code": "BE", "image": "BE", "dial_code": "+32", "phone_length": 9, "currency": "EUR", "locale": "fr_BE" },
    { "label": "Burkina Faso", "code": "BF", "image": "BF", "dial_code": "+226", "phone_length": 8, "currency": "XOF", "locale": "fr_BF" },
    { "label": "Bulgarie", "code": "BG", "image": "BG", "dial_code": "+359", "phone_length": 9, "currency": "BGN", "locale": "bg_BG" },
    { "label": "Bahreïn", "code": "BH", "image": "BH", "dial_code": "+973", "phone_length": 8, "currency": "BHD", "locale": "ar_BH" },
    { "label": "Burundi", "code": "BI", "image": "BI", "dial_code": "+257", "phone_length": 8, "currency": "BIF", "locale": "fr_BI" },
    { "label": "Bénin", "code": "BJ", "image": "BJ", "dial_code": "+229", "phone_length": 8, "currency": "XOF", "locale": "fr_BJ" },
    { "label": "Saint-Barthélemy", "code": "BL", "image": "BL", "dial_code": "+590", "phone_length": 10, "currency": "EUR", "locale": "fr_BL" },
    { "label": "Bermudes", "code": "BM", "image": "BM", "dial_code": "+1", "phone_length": 10, "currency": "BMD", "locale": "en_BM" },
    { "label": "Brunei", "code": "BN", "image": "BN", "dial_code": "+673", "phone_length": 7, "currency": "BND", "locale": "ms_BN" },
    { "label": "Bolivie", "code": "BO", "image": "BO", "dial_code": "+591", "phone_length": 8, "currency": "BOB", "locale": "es_BO" },
    { "label": "Pays-Bas caribéens", "code": "BQ", "image": "BQ", "dial_code": "+599", "phone_length": 10, "currency": "USD", "locale": "nl_BQ" },
    { "label": "Brésil", "code": "BR", "image": "BR", "dial_code": "+55", "phone_length": 11, "currency": "BRL", "locale": "pt_BR" },
    { "label": "Bahamas", "code": "BS", "image": "BS", "dial_code": "+1", "phone_length": 7, "currency": "BSD", "locale": "en_BS" },
    { "label": "Bhoutan", "code": "BT", "image": "BT", "dial_code": "+975", "phone_length": 8, "currency": "BTN", "locale": "dz_BT" },
    { "label": "Île Bouvet", "code": "BV", "image": "BV", "dial_code": "+47", "phone_length": 8, "currency": "NOK", "locale": "no_BV" },
    { "label": "Botswana", "code": "BW", "image": "BW", "dial_code": "+267", "phone_length": 7, "currency": "BWP", "locale": "en_BW" },
    { "label": "Biélorussie", "code": "BY", "image": "BY", "dial_code": "+375", "phone_length": 9, "currency": "BYN", "locale": "be_BY" },
    { "label": "Belize", "code": "BZ", "image": "BZ", "dial_code": "+501", "phone_length": 7, "currency": "BZD", "locale": "en_BZ" },
    { "label": "Canada", "code": "CA", "image": "CA", "dial_code": "+1", "phone_length": 10, "currency": "CAD", "locale": "en_CA" },
    { "label": "Îles Cocos", "code": "CC", "image": "CC", "dial_code": "+61", "phone_length": 9, "currency": "AUD", "locale": "en_CC" },
    { "label": "République démocratique du Congo", "code": "CD", "image": "CD", "dial_code": "+243", "phone_length": 9, "currency": "CDF", "locale": "fr_CD" },
    { "label": "République centrafricaine", "code": "CF", "image": "CF", "dial_code": "+236", "phone_length": 9, "currency": "XAF", "locale": "fr_CF" },
    { "label": "Congo", "code": "CG", "image": "CG", "dial_code": "+242", "phone_length": 9, "currency": "XAF", "locale": "fr_CG" },
    { "label": "Suisse", "code": "CH", "image": "CH", "dial_code": "+41", "phone_length": 9, "currency": "CHF", "locale": "fr_CH" },
    { "label": "Côte d’Ivoire", "code": "CI", "image": "CI", "dial_code": "+225", "phone_length": 8, "currency": "XOF", "locale": "fr_CI" },
    { "label": "Îles Cook", "code": "CK", "image": "CK", "dial_code": "+682", "phone_length": 5, "currency": "NZD", "locale": "en_CK" },
    { "label": "Chili", "code": "CL", "image": "CL", "dial_code": "+56", "phone_length": 9, "currency": "CLP", "locale": "es_CL" },
    { "label": "Cameroun", "code": "CM", "image": "CM", "dial_code": "+237", "phone_length": 9, "currency": "XAF", "locale": "fr_CM" },
    { "label": "Chine", "code": "CN", "image": "CN", "dial_code": "+86", "phone_length": 11, "currency": "CNY", "locale": "zh_CN" },
    { "label": "Colombie", "code": "CO", "image": "CO", "dial_code": "+57", "phone_length": 10, "currency": "COP", "locale": "es_CO" },
    { "label": "Costa Rica", "code": "CR", "image": "CR", "dial_code": "+506", "phone_length": 8, "currency": "CRC", "locale": "es_CR" },
    { "label": "Cuba", "code": "CU", "image": "CU", "dial_code": "+53", "phone_length": 8, "currency": "CUP", "locale": "es_CU" },
    { "label": "Cap-Vert", "code": "CV", "image": "CV", "dial_code": "+238", "phone_length": 7, "currency": "CVE", "locale": "pt_CV" },
    { "label": "Curaçao", "code": "CW", "image": "CW", "dial_code": "+599", "phone_length": 9, "currency": "ANG", "locale": "nl_CW" },
    { "label": "Île Christmas", "code": "CX", "image": "CX", "dial_code": "+61", "phone_length": 9, "currency": "AUD", "locale": "en_CX" },
    { "label": "Chypre", "code": "CY", "image": "CY", "dial_code": "+357", "phone_length": 8, "currency": "CYP", "locale": "el_CY" },
    { "label": "Tchéquie", "code": "CZ", "image": "CZ", "dial_code": "+420", "phone_length": 9, "currency": "CZK", "locale": "cs_CZ" },
    { "label": "Allemagne", "code": "DE", "image": "DE", "dial_code": "+49", "phone_length": 11, "currency": "EUR", "locale": "de_DE" },
    { "label": "Djibouti", "code": "DJ", "image": "DJ", "dial_code": "+253", "phone_length": 8, "currency": "DJF", "locale": "fr_DJ" },
    { "label": "Danemark", "code": "DK", "image": "DK", "dial_code": "+45", "phone_length": 8, "currency": "DKK", "locale": "da_DK" },
    { "label": "Dominique", "code": "DM", "image": "DM", "dial_code": "+1", "phone_length": 7, "currency": "XCD", "locale": "en_DM" },
    { "label": "République dominicaine", "code": "DO", "image": "DO", "dial_code": "+1", "phone_length": 10, "currency": "DOP", "locale": "es_DO" },
    { "label": "Algérie", "code": "DZ", "image": "DZ", "dial_code": "+213", "phone_length": 9, "currency": "DZD", "locale": "ar_DZ" },
    { "label": "Équateur", "code": "EC", "image": "EC", "dial_code": "+593", "phone_length": 9, "currency": "USD", "locale": "es_EC" },
    { "label": "Estonie", "code": "EE", "image": "EE", "dial_code": "+372", "phone_length": 8, "currency": "EUR", "locale": "et_EE" },
    { "label": "Égypte", "code": "EG", "image": "EG", "dial_code": "+20", "phone_length": 10, "currency": "EGP", "locale": "ar_EG" },
    { "label": "Sahara occidental", "code": "EH", "image": "EH", "dial_code": "+212", "phone_length": 9, "currency": "MAD", "locale": "ar_EH" },
    { "label": "Érythrée", "code": "ER", "image": "ER", "dial_code": "+291", "phone_length": 7, "currency": "ERN", "locale": "ti_ER" },
    { "label": "Espagne", "code": "ES", "image": "ES", "dial_code": "+34", "phone_length": 9, "currency": "EUR", "locale": "es_ES" },
    { "label": "Éthiopie", "code": "ET", "image": "ET", "dial_code": "+251", "phone_length": 9, "currency": "ETB", "locale": "am_ET" },
    { "label": "Finlande", "code": "FI", "image": "FI", "dial_code": "+358", "phone_length": 9, "currency": "EUR", "locale": "fi_FI" },
    { "label": "Fidji", "code": "FJ", "image": "FJ", "dial_code": "+679", "phone_length": 8, "currency": "FJD", "locale": "en_FJ" },
    { "label": "Îles Malouines", "code": "FK", "image": "FK", "dial_code": "+500", "phone_length": 5, "currency": "FKP", "locale": "en_FK" },
    { "label": "Micronésie", "code": "FM", "image": "FM", "dial_code": "+691", "phone_length": 7, "currency": "USD", "locale": "en_FM" },
    { "label": "Îles Féroé", "code": "FO", "image": "FO", "dial_code": "+298", "phone_length": 6, "currency": "DKK", "locale": "fo_FO" },
    { "label": "France", "code": "FR", "image": "FR", "dial_code": "+33", "phone_length": 9, "currency": "EUR", "locale": "fr_FR" },
    { "label": "Gabon", "code": "GA", "image": "GA", "dial_code": "+241", "phone_length": 7, "currency": "XAF", "locale": "fr_GA" },
    { "label": "Royaume-Uni", "code": "GB", "image": "GB", "dial_code": "+44", "phone_length": 10, "currency": "GBP", "locale": "en_GB" },
    { "label": "Grenade", "code": "GD", "image": "GD", "dial_code": "+1-473", "phone_length": 10, "currency": "XCD", "locale": "en_GD" },
    { "label": "Géorgie", "code": "GE", "image": "GE", "dial_code": "+995", "phone_length": 9, "currency": "GEL", "locale": "ka_GE" },
    { "label": "Guyane française", "code": "GF", "image": "GF", "dial_code": "+594", "phone_length": 9, "currency": "EUR", "locale": "fr_GF" },
    { "label": "Guernesey", "code": "GG", "image": "GG", "dial_code": "+44-1481", "phone_length": 9, "currency": "GBP", "locale": "en_GG" },
    { "label": "Ghana", "code": "GH", "image": "GH", "dial_code": "+233", "phone_length": 9, "currency": "GHS", "locale": "en_GH" },
    { "label": "Gibraltar", "code": "GI", "image": "GI", "dial_code": "+350", "phone_length": 5, "currency": "GIP", "locale": "en_GI" },
    { "label": "Groenland", "code": "GL", "image": "GL", "dial_code": "+299", "phone_length": 8, "currency": "DKK", "locale": "kl_GL" },
    { "label": "Gambie", "code": "GM", "image": "GM", "dial_code": "+220", "phone_length": 7, "currency": "GMD", "locale": "en_GM" },
    { "label": "Guinée", "code": "GN", "image": "GN", "dial_code": "+224", "phone_length": 9, "currency": "GNF", "locale": "fr_GN" },
    { "label": "Guadeloupe", "code": "GP", "image": "GP", "dial_code": "+590", "phone_length": 9, "currency": "EUR", "locale": "fr_GP" },
    { "label": "Guinée équatoriale", "code": "GQ", "image": "GQ", "dial_code": "+240", "phone_length": 9, "currency": "XAF", "locale": "es_GQ" },
    { "label": "Grèce", "code": "GR", "image": "GR", "dial_code": "+30", "phone_length": 10, "currency": "EUR", "locale": "el_GR" },
    { "label": "Géorgie du Sud-et-les îles Sandwich du Sud", "code": "GS", "image": "GS", "dial_code": "+500", "phone_length": 5, "currency": "GBP", "locale": "en_GS" },
    { "label": "Guatemala", "code": "GT", "image": "GT", "dial_code": "+502", "phone_length": 8, "currency": "GTQ", "locale": "es_GT" },
    { "label": "Guam", "code": "GU", "image": "GU", "dial_code": "+1-671", "phone_length": 10, "currency": "USD", "locale": "en_GU" },
    { "label": "Guinée-Bissau", "code": "GW", "image": "GW", "dial_code": "+245", "phone_length": 9, "currency": "XOF", "locale": "pt_GW" },
    { "label": "Guyana", "code": "GY", "image": "GY", "dial_code": "+592", "phone_length": 7, "currency": "GYD", "locale": "en_GY" },
    { "label": "Hong Kong", "code": "HK", "image": "HK", "dial_code": "+852", "phone_length": 8, "currency": "HKD", "locale": "zh_HK" },
    { "label": "Îles Heard-et-MacDonald", "code": "HM", "image": "HM", "dial_code": "+672", "phone_length": 4, "currency": "AUD", "locale": "en_HM" },
    { "label": "Honduras", "code": "HN", "image": "HN", "dial_code": "+504", "phone_length": 8, "currency": "HNL", "locale": "es_HN" },
    { "label": "Croatie", "code": "HR", "image": "HR", "dial_code": "+385", "phone_length": 9, "currency": "HRK", "locale": "hr_HR" },
    { "label": "Haïti", "code": "HT", "image": "HT", "dial_code": "+509", "phone_length": 8, "currency": "HTG", "locale": "fr_HT" },
    { "label": "Hongrie", "code": "HU", "image": "HU", "dial_code": "+36", "phone_length": 9, "currency": "HUF", "locale": "hu_HU" },
    { "label": "Indonésie", "code": "ID", "image": "ID", "dial_code": "+62", "phone_length": 10, "currency": "IDR", "locale": "id_ID" },
    { "label": "Irlande", "code": "IE", "image": "IE", "dial_code": "+353", "phone_length": 9, "currency": "EUR", "locale": "ga_IE" },
    { "label": "Israël", "code": "IL", "image": "IL", "dial_code": "+972", "phone_length": 9, "currency": "ILS", "locale": "he_IL" },
    { "label": "Île de Man", "code": "IM", "image": "IM", "dial_code": "+44-1624", "phone_length": 9, "currency": "GBP", "locale": "en_IM" },
    { "label": "Inde", "code": "IN", "image": "IN", "dial_code": "+91", "phone_length": 10, "currency": "INR", "locale": "hi_IN" },
    { "label": "Territoire britannique de l’océan Indien", "code": "IO", "image": "IO", "dial_code": "+246", "phone_length": 7, "currency": "USD", "locale": "en_IO" },
    { "label": "Irak", "code": "IQ", "image": "IQ", "dial_code": "+964", "phone_length": 9, "currency": "IQD", "locale": "ar_IQ" },
    { "label": "Iran", "code": "IR", "image": "IR", "dial_code": "+98", "phone_length": 10, "currency": "IRR", "locale": "fa_IR" },
    { "label": "Islande", "code": "IS", "image": "IS", "dial_code": "+354", "phone_length": 8, "currency": "ISK", "locale": "is_IS" },
    { "label": "Italie", "code": "IT", "image": "IT", "dial_code": "+39", "phone_length": 9, "currency": "EUR", "locale": "it_IT" },
    { "label": "Japon", "code": "JP", "image": "JP", "dial_code": "+81", "phone_length": 10, "currency": "JPY", "locale": "ja_JP" },
    { "label": "Jersey", "code": "JE", "image": "JE", "dial_code": "+44", "phone_length": 10, "currency": "GBP", "locale": "en_JE" },
    { "label": "Jamaïque", "code": "JM", "image": "JM", "dial_code": "+1-876", "phone_length": 10, "currency": "JMD", "locale": "en_JM" },
    { "label": "Jordanie", "code": "JO", "image": "JO", "dial_code": "+962", "phone_length": 9, "currency": "JOD", "locale": "ar_JO" },
    { "label": "Kenya", "code": "KE", "image": "KE", "dial_code": "+254", "phone_length": 9, "currency": "KES", "locale": "sw_KE" },
    { "label": "Kirghizstan", "code": "KG", "image": "KG", "dial_code": "+996", "phone_length": 9, "currency": "KGS", "locale": "ky_KG" },
    { "label": "Cambodge", "code": "KH", "image": "KH", "dial_code": "+855", "phone_length": 9, "currency": "KHR", "locale": "km_KH" },
    { "label": "Kiribati", "code": "KI", "image": "KI", "dial_code": "+686", "phone_length": 7, "currency": "AUD", "locale": "en_KI" },
    { "label": "Comores", "code": "KM", "image": "KM", "dial_code": "+269", "phone_length": 9, "currency": "KMF", "locale": "fr_KM" },
    { "label": "Saint-Christophe-et-Niévès", "code": "KN", "image": "KN", "dial_code": "+1-869", "phone_length": 10, "currency": "XCD", "locale": "en_KN" },
    { "label": "Corée du Nord", "code": "KP", "image": "KP", "dial_code": "+850", "phone_length": 9, "currency": "KPW", "locale": "ko_KP" },
    { "label": "Corée du Sud", "code": "KR", "image": "KR", "dial_code": "+82", "phone_length": 10, "currency": "KRW", "locale": "ko_KR" },
    { "label": "Koweït", "code": "KW", "image": "KW", "dial_code": "+965", "phone_length": 8, "currency": "KWD", "locale": "ar_KW" },
    { "label": "Îles Caïmans", "code": "KY", "image": "KY", "dial_code": "+1-345", "phone_length": 10, "currency": "KYD", "locale": "en_KY" },
    { "label": "Kazakhstan", "code": "KZ", "image": "KZ", "dial_code": "+7", "phone_length": 10, "currency": "KZT", "locale": "kk_KZ" },
    { "label": "Laos", "code": "LA", "image": "LA", "dial_code": "+856", "phone_length": 9, "currency": "LAK", "locale": "lo_LA" },
    { "label": "Liban", "code": "LB", "image": "LB", "dial_code": "+961", "phone_length": 8, "currency": "LBP", "locale": "ar_LB" },
    { "label": "Sainte-Lucie", "code": "LC", "image": "LC", "dial_code": "+1-758", "phone_length": 10, "currency": "XCD", "locale": "en_LC" },
    { "label": "Liechtenstein", "code": "LI", "image": "LI", "dial_code": "+423", "phone_length": 8, "currency": "CHF", "locale": "de_LI" },
    { "label": "Sri Lanka", "code": "LK", "image": "LK", "dial_code": "+94", "phone_length": 10, "currency": "LKR", "locale": "si_LK" },
    { "label": "Liberia", "code": "LR", "image": "LR", "dial_code": "+231", "phone_length": 8, "currency": "LRD", "locale": "en_LR" },
    { "label": "Lesotho", "code": "LS", "image": "LS", "dial_code": "+266", "phone_length": 8, "currency": "LSL", "locale": "st_LS" },
    { "label": "Lituanie", "code": "LT", "image": "LT", "dial_code": "+370", "phone_length": 8, "currency": "EUR", "locale": "lt_LT" },
    { "label": "Luxembourg", "code": "LU", "image": "LU", "dial_code": "+352", "phone_length": 9, "currency": "EUR", "locale": "lb_LU" },
    { "label": "Lettonie", "code": "LV", "image": "LV", "dial_code": "+371", "phone_length": 8, "currency": "EUR", "locale": "lv_LV" },
    { "label": "Libye", "code": "LY", "image": "LY", "dial_code": "+218", "phone_length": 9, "currency": "LYD", "locale": "ar_LY" },
    { "label": "Maroc", "code": "MA", "image": "MA", "dial_code": "+212", "phone_length": 9, "currency": "MAD", "locale": "ar_MA" },
    { "label": "Monaco", "code": "MC", "image": "MC", "dial_code": "+377", "phone_length": 8, "currency": "EUR", "locale": "fr_MC" },
    { "label": "Moldavie", "code": "MD", "image": "MD", "dial_code": "+373", "phone_length": 8, "currency": "MDL", "locale": "ro_MD" },
    { "label": "Monténégro", "code": "ME", "image": "ME", "dial_code": "+382", "phone_length": 8, "currency": "EUR", "locale": "sr_ME" },
    { "label": "Saint-Martin", "code": "MF", "image": "MF", "dial_code": "+590", "phone_length": 10, "currency": "EUR", "locale": "fr_MF" },
    { "label": "Madagascar", "code": "MG", "image": "MG", "dial_code": "+261", "phone_length": 9, "currency": "MGA", "locale": "mg_MG" },
    { "label": "Îles Marshall", "code": "MH", "image": "MH", "dial_code": "+692", "phone_length": 7, "currency": "USD", "locale": "en_MH" },
    { "label": "Macédoine du Nord", "code": "MK", "image": "MK", "dial_code": "+389", "phone_length": 8, "currency": "MKD", "locale": "mk_MK" },
    { "label": "Mali", "code": "ML", "image": "ML", "dial_code": "+223", "phone_length": 8, "currency": "XOF", "locale": "fr_ML" },
    { "label": "Myanmar", "code": "MM", "image": "MM", "dial_code": "+95", "phone_length": 9, "currency": "MMK", "locale": "my_MM" },
    { "label": "Mongolie", "code": "MN", "image": "MN", "dial_code": "+976", "phone_length": 8, "currency": "MNT", "locale": "mn_MN" },
    { "label": "Macao", "code": "MO", "image": "MO", "dial_code": "+853", "phone_length": 9, "currency": "MOP", "locale": "zh_MO" },
    { "label": "Îles Mariannes du Nord", "code": "MP", "image": "MP", "dial_code": "+1-670", "phone_length": 10, "currency": "USD", "locale": "en_MP" },
    { "label": "Martinique", "code": "MQ", "image": "MQ", "dial_code": "+596", "phone_length": 10, "currency": "EUR", "locale": "fr_MQ" },
    { "label": "Mauritanie", "code": "MR", "image": "MR", "dial_code": "+222", "phone_length": 8, "currency": "MRU", "locale": "ar_MR" },
    { "label": "Montserrat", "code": "MS", "image": "MS", "dial_code": "+1-664", "phone_length": 10, "currency": "XCD", "locale": "en_MS" },
    { "label": "Malte", "code": "MT", "image": "MT", "dial_code": "+356", "phone_length": 8, "currency": "EUR", "locale": "mt_MT" },
    { "label": "Maurice", "code": "MU", "image": "MU", "dial_code": "+230", "phone_length": 8, "currency": "MUR", "locale": "en_MU" },
    { "label": "Maldives", "code": "MV", "image": "MV", "dial_code": "+960", "phone_length": 7, "currency": "MVR", "locale": "dv_MV" },
    { "label": "Malawi", "code": "MW", "image": "MW", "dial_code": "+265", "phone_length": 9, "currency": "MWK", "locale": "en_MW" },
    { "label": "Mexique", "code": "MX", "image": "MX", "dial_code": "+52", "phone_length": 10, "currency": "MXN", "locale": "es_MX" },
    { "label": "Malaisie", "code": "MY", "image": "MY", "dial_code": "+60", "phone_length": 10, "currency": "MYR", "locale": "ms_MY" },
    { "label": "Mozambique", "code": "MZ", "image": "MZ", "dial_code": "+258", "phone_length": 9, "currency": "MZN", "locale": "pt_MZ" },
    { "label": "Namibie", "code": "NA", "image": "NA", "dial_code": "+264", "phone_length": 9, "currency": "NAD", "locale": "en_NA" },
    { "label": "Nouvelle-Calédonie", "code": "NC", "image": "NC", "dial_code": "+687", "phone_length": 9, "currency": "XPF", "locale": "fr_NC" },
    { "label": "Niger", "code": "NE", "image": "NE", "dial_code": "+227", "phone_length": 8, "currency": "XOF", "locale": "fr_NE" },
    { "label": "Île Norfolk", "code": "NF", "image": "NF", "dial_code": "+672", "phone_length": 7, "currency": "AUD", "locale": "en_NF" },
    { "label": "Nigeria", "code": "NG", "image": "NG", "dial_code": "+234", "phone_length": 10, "currency": "NGN", "locale": "en_NG" },
    { "label": "Nicaragua", "code": "NI", "image": "NI", "dial_code": "+505", "phone_length": 8, "currency": "NIO", "locale": "es_NI" },
    { "label": "Pays-Bas", "code": "NL", "image": "NL", "dial_code": "+31", "phone_length": 9, "currency": "EUR", "locale": "nl_NL" },
    { "label": "Norvège", "code": "NO", "image": "NO", "dial_code": "+47", "phone_length": 8, "currency": "NOK", "locale": "no_NO" },
    { "label": "Népal", "code": "NP", "image": "NP", "dial_code": "+977", "phone_length": 10, "currency": "NPR", "locale": "ne_NP" },
    { "label": "Nauru", "code": "NR", "image": "NR", "dial_code": "+674", "phone_length": 8, "currency": "AUD", "locale": "en_NR" },
    { "label": "Niue", "code": "NU", "image": "NU", "dial_code": "+683", "phone_length": 7, "currency": "NZD", "locale": "niu_NU" },
    { "label": "Nouvelle-Zélande", "code": "NZ", "image": "NZ", "dial_code": "+64", "phone_length": 9, "currency": "NZD", "locale": "en_NZ" },
    { "label": "Oman", "code": "OM", "image": "OM", "dial_code": "+968", "phone_length": 8, "currency": "OMR", "locale": "ar_OM" },
    { "label": "Panama", "code": "PA", "image": "PA", "dial_code": "+507", "phone_length": 8, "currency": "PAB", "locale": "es_PA" },
    { "label": "Pérou", "code": "PE", "image": "PE", "dial_code": "+51", "phone_length": 9, "currency": "PEN", "locale": "es_PE" },
    { "label": "Polynésie française", "code": "PF", "image": "PF", "dial_code": "+689", "phone_length": 9, "currency": "XPF", "locale": "fr_PF" },
    { "label": "Papouasie-Nouvelle-Guinée", "code": "PG", "image": "PG", "dial_code": "+675", "phone_length": 9, "currency": "PGK", "locale": "en_PG" },
    { "label": "Philippines", "code": "PH", "image": "PH", "dial_code": "+63", "phone_length": 10, "currency": "PHP", "locale": "fil_PH" },
    { "label": "Pakistan", "code": "PK", "image": "PK", "dial_code": "+92", "phone_length": 10, "currency": "PKR", "locale": "ur_PK" },
    { "label": "Pologne", "code": "PL", "image": "PL", "dial_code": "+48", "phone_length": 9, "currency": "PLN", "locale": "pl_PL" },
    { "label": "Saint-Pierre-et-Miquelon", "code": "PM", "image": "PM", "dial_code": "+508", "phone_length": 9, "currency": "XPF", "locale": "fr_PM" },
    { "label": "Îles Pitcairn", "code": "PN", "image": "PN", "dial_code": "+64", "phone_length": 9, "currency": "NZD", "locale": "en_PN" },
    { "label": "Porto Rico", "code": "PR", "image": "PR", "dial_code": "+1", "phone_length": 10, "currency": "USD", "locale": "es_PR" },
    { "label": "Territoires palestiniens", "code": "PS", "image": "PS", "dial_code": "+970", "phone_length": 9, "currency": "ILS", "locale": "ar_PS" },
    { "label": "Portugal", "code": "PT", "image": "PT", "dial_code": "+351", "phone_length": 9, "currency": "EUR", "locale": "pt_PT" },
    { "label": "Palaos", "code": "PW", "image": "PW", "dial_code": "+680", "phone_length": 7, "currency": "USD", "locale": "en_PW" },
    { "label": "Paraguay", "code": "PY", "image": "PY", "dial_code": "+595", "phone_length": 9, "currency": "PYG", "locale": "es_PY" },
    { "label": "Qatar", "code": "QA", "image": "QA", "dial_code": "+974", "phone_length": 8, "currency": "QAR", "locale": "ar_QA" },
    { "label": "La Réunion", "code": "RE", "image": "RE", "dial_code": "+262", "phone_length": 9, "currency": "EUR", "locale": "fr_RE" },
    { "label": "Roumanie", "code": "RO", "image": "RO", "dial_code": "+40", "phone_length": 10, "currency": "RON", "locale": "ro_RO" },
    { "label": "Serbie", "code": "RS", "image": "RS", "dial_code": "+381", "phone_length": 9, "currency": "RSD", "locale": "sr_RS" },
    { "label": "Russie", "code": "RU", "image": "RU", "dial_code": "+7", "phone_length": 10, "currency": "RUB", "locale": "ru_RU" },
    { "label": "Rwanda", "code": "RW", "image": "RW", "dial_code": "+250", "phone_length": 9, "currency": "RWF", "locale": "rw_RW" },
    { "label": "Arabie saoudite", "code": "SA", "image": "SA", "dial_code": "+966", "phone_length": 9, "currency": "SAR", "locale": "ar_SA" },
    { "label": "Îles Salomon", "code": "SB", "image": "SB", "dial_code": "+677", "phone_length": 7, "currency": "SBD", "locale": "en_SB" },
    { "label": "Seychelles", "code": "SC", "image": "SC", "dial_code": "+248", "phone_length": 7, "currency": "SCR", "locale": "fr_SC" },
    { "label": "Soudan", "code": "SD", "image": "SD", "dial_code": "+249", "phone_length": 9, "currency": "SDG", "locale": "ar_SD" },
    { "label": "Suède", "code": "SE", "image": "SE", "dial_code": "+46", "phone_length": 9, "currency": "SEK", "locale": "sv_SE" },
    { "label": "Singapour", "code": "SG", "image": "SG", "dial_code": "+65", "phone_length": 8, "currency": "SGD", "locale": "en_SG" },
    { "label": "Sainte-Hélène", "code": "SH", "image": "SH", "dial_code": "+290", "phone_length": 4, "currency": "SHP", "locale": "en_SH" },
    { "label": "Slovénie", "code": "SI", "image": "SI", "dial_code": "+386", "phone_length": 9, "currency": "EUR", "locale": "sl_SI" },
    { "label": "Svalbard et Jan Mayen", "code": "SJ", "image": "SJ", "dial_code": "+47", "phone_length": 8, "currency": "NOK", "locale": "no_SJ" },
    { "label": "Slovaquie", "code": "SK", "image": "SK", "dial_code": "+421", "phone_length": 9, "currency": "EUR", "locale": "sk_SK" },
    { "label": "Sierra Leone", "code": "SL", "image": "SL", "dial_code": "+232", "phone_length": 9, "currency": "SLL", "locale": "en_SL" },
    { "label": "Saint-Marin", "code": "SM", "image": "SM", "dial_code": "+378", "phone_length": 9, "currency": "EUR", "locale": "it_SM" },
    { "label": "Sénégal", "code": "SN", "image": "SN", "dial_code": "+221", "phone_length": 9, "currency": "XOF", "locale": "fr_SN" },
    { "label": "Somalie", "code": "SO", "image": "SO", "dial_code": "+252", "phone_length": 9, "currency": "SOS", "locale": "so_SO" },
    { "label": "Suriname", "code": "SR", "image": "SR", "dial_code": "+597", "phone_length": 9, "currency": "SRD", "locale": "nl_SR" },
    { "label": "Soudan du Sud", "code": "SS", "image": "SS", "dial_code": "+211", "phone_length": 9, "currency": "SSP", "locale": "en_SS" },
    { "label": "Sao Tomé-et-Principe", "code": "ST", "image": "ST", "dial_code": "+239", "phone_length": 9, "currency": "STN", "locale": "pt_ST" },
    { "label": "Salvador", "code": "SV", "image": "SV", "dial_code": "+503", "phone_length": 8, "currency": "SVC", "locale": "es_SV" },
    { "label": "Saint-Martin (partie néerlandaise)", "code": "SX", "image": "SX", "dial_code": "+1", "phone_length": 10, "currency": "ANG", "locale": "nl_SX" },
    { "label": "Syrie", "code": "SY", "image": "SY", "dial_code": "+963", "phone_length": 9, "currency": "SYP", "locale": "ar_SY" },
    { "label": "Eswatini", "code": "SZ", "image": "SZ", "dial_code": "+268", "phone_length": 9, "currency": "SZL", "locale": "en_SZ" },
    { "label": "Îles Turques-et-Caïques", "code": "TC", "image": "TC", "dial_code": "+1", "phone_length": 10, "currency": "USD", "locale": "en_TC" },
    { "label": "Tchad", "code": "TD", "image": "TD", "dial_code": "+235", "phone_length": 9, "currency": "XAF", "locale": "fr_TD" },
    { "label": "Terres australes françaises", "code": "TF", "image": "TF", "dial_code": "+262", "phone_length": 9, "currency": "EUR", "locale": "fr_TF" },
    { "label": "Togo", "code": "TG", "image": "TG", "dial_code": "+228", "phone_length": 9, "currency": "XOF", "locale": "fr_TG" },
    { "label": "Thaïlande", "code": "TH", "image": "TH", "dial_code": "+66", "phone_length": 9, "currency": "THB", "locale": "th_TH" },
    { "label": "Tadjikistan", "code": "TJ", "image": "TJ", "dial_code": "+992", "phone_length": 9, "currency": "TJS", "locale": "tg_TJ" },
    { "label": "Tokelau", "code": "TK", "image": "TK", "dial_code": "+690", "phone_length": 7, "currency": "NZD", "locale": "tkl_TK" },
    { "label": "Timor oriental", "code": "TL", "image": "TL", "dial_code": "+670", "phone_length": 9, "currency": "USD", "locale": "pt_TL" },
    { "label": "Turkménistan", "code": "TM", "image": "TM", "dial_code": "+993", "phone_length": 8, "currency": "TMT", "locale": "tk_TM" },
    { "label": "Tunisie", "code": "TN", "image": "TN", "dial_code": "+216", "phone_length": 8, "currency": "TND", "locale": "ar_TN" },
    { "label": "Tonga", "code": "TO", "image": "TO", "dial_code": "+676", "phone_length": 7, "currency": "TOP", "locale": "to_TO" },
    { "label": "Turquie", "code": "TR", "image": "TR", "dial_code": "+90", "phone_length": 10, "currency": "TRY", "locale": "tr_TR" },
    { "label": "Trinité-et-Tobago", "code": "TT", "image": "TT", "dial_code": "+1-868", "phone_length": 7, "currency": "TTD", "locale": "en_TT" },
    { "label": "Tuvalu", "code": "TV", "image": "TV", "dial_code": "+688", "phone_length": 7, "currency": "AUD", "locale": "en_TV" },
    { "label": "Taïwan", "code": "TW", "image": "TW", "dial_code": "+886", "phone_length": 9, "currency": "TWD", "locale": "zh_TW" },
    { "label": "Tanzanie", "code": "TZ", "image": "TZ", "dial_code": "+255", "phone_length": 9, "currency": "TZS", "locale": "sw_TZ" },
    { "label": "Ukraine", "code": "UA", "image": "UA", "dial_code": "+380", "phone_length": 9, "currency": "UAH", "locale": "uk_UA" },
    { "label": "Ouganda", "code": "UG", "image": "UG", "dial_code": "+256", "phone_length": 9, "currency": "UGX", "locale": "en_UG" },
    { "label": "Îles mineures éloignées des États-Unis", "code": "UM", "image": "UM", "dial_code": "+1", "phone_length": 10, "currency": "USD", "locale": "en_UM" },
    { "label": "Uruguay", "code": "UY", "image": "UY", "dial_code": "+598", "phone_length": 8, "currency": "UYU", "locale": "es_UY" },
    { "label": "Ouzbékistan", "code": "UZ", "image": "UZ", "dial_code": "+998", "phone_length": 9, "currency": "UZS", "locale": "uz_UZ" },
    { "label": "État de la Cité du Vatican", "code": "VA", "image": "VA", "dial_code": "+39", "phone_length": 9, "currency": "EUR", "locale": "la_VA" },
    { "label": "Saint-Vincent-et-les Grenadines", "code": "VC", "image": "VC", "dial_code": "+1-784", "phone_length": 7, "currency": "XCD", "locale": "en_VC" },
    { "label": "Venezuela", "code": "VE", "image": "VE", "dial_code": "+58", "phone_length": 10, "currency": "VES", "locale": "es_VE" },
    { "label": "Îles Vierges britanniques", "code": "VG", "image": "VG", "dial_code": "+1-284", "phone_length": 7, "currency": "USD", "locale": "en_VG" },
    { "label": "Îles Vierges des États-Unis", "code": "VI", "image": "VI", "dial_code": "+1-340", "phone_length": 7, "currency": "USD", "locale": "en_VI" },
    { "label": "Viêt Nam", "code": "VN", "image": "VN", "dial_code": "+84", "phone_length": 9, "currency": "VND", "locale": "vi_VN" },
    { "label": "Vanuatu", "code": "VU", "image": "VU", "dial_code": "+678", "phone_length": 7, "currency": "VUV", "locale": "bi_VU" },
    { "label": "Wallis-et-Futuna", "code": "WF", "image": "WF", "dial_code": "+681", "phone_length": 7, "currency": "XPF", "locale": "fr_WF" },
    { "label": "Samoa", "code": "WS", "image": "WS", "dial_code": "+685", "phone_length": 7, "currency": "WST", "locale": "sm_WS" },
    { "label": "Kosovo", "code": "XK", "image": "XK", "dial_code": "+383", "phone_length": 8, "currency": "EUR", "locale": "sq_XK" },
    { "label": "Yémen", "code": "YE", "image": "YE", "dial_code": "+967", "phone_length": 9, "currency": "YER", "locale": "ar_YE" },
    { "label": "Mayotte", "code": "YT", "image": "YT", "dial_code": "+262", "phone_length": 9, "currency": "EUR", "locale": "fr_YT" },
    { "label": "Afrique du Sud", "code": "ZA", "image": "ZA", "dial_code": "+27", "phone_length": 9, "currency": "ZAR", "locale": "en_ZA" },
    { "label": "Zambie", "code": "ZM", "image": "ZM", "dial_code": "+260", "phone_length": 9, "currency": "ZMW", "locale": "en_ZM" },
    { "label": "Zimbabwe", "code": "ZW", "image": "ZW", "dial_code": "+263", "phone_length": 9, "currency": "ZWL", "locale": "en_ZW" }
]








